{
  "norad_id": 36585,
  "name": "GPS BIIF-1 (NAVSTAR-65)",
  "line1": "1 36585U 10022A   26116.50000000  .00000000  00000-0  00000-0 0  9993",
  "line2": "2 36585  55.1600 150.0000 0010000  40.0000 320.0000  2.00564740000011",
  "samples": [
    {
      "t": 0,
      "r_km": [
        -22966.96837724335,
        13300.365029493245,
        -53.57018313091599
      ],
      "v_km_s": [
        -1.1128200184201498,
        -1.915575008528508,
        3.1816970343984745
      ]
    },
    {
      "t": 60,
      "r_km": [
        -23032.854985277696,
        13184.921843453743,
        137.3309304655589
      ],
      "v_km_s": [
        -1.0833928518001088,
        -1.9325183049417476,
        3.18164341776352
      ]
    },
    {
      "t": 600,
      "r_km": [
        -23545.70087335059,
        12101.471835535785,
        1853.208130192183
      ],
      "v_km_s": [
        -0.8150489696134678,
        -2.0781959196285276,
        3.1701730336235023
      ]
    },
    {
      "t": 3600,
      "r_km": [
        -23688.741278511934,
        4921.1920842780055,
        10887.042008875136
      ],
      "v_km_s": [
        0.7214046934623282,
        -2.6318868543261993,
        2.7556390504640316
      ]
    }
  ]
}